[
{
"CCSDS_OMM_VERS": "2.0",
"COMMENT": "GENERATED VIA SPACE-TRACK.ORG API",
"CREATION_DATE": "2025-03-18T19:01:07",
"ORIGINATOR": "18 SPCS",
"OBJECT_NAME": "BEIDOU 3M13",
"OBJECT_ID": "2018-072A",
"CENTER_NAME": "EARTH",
"REF_FRAME": "TEME",
"TIME_SYSTEM": "UTC",
"MEAN_ELEMENT_THEORY": "SGP4",
"EPOCH": "2025-03-18T02:59:08.582496",
"MEAN_MOTION": "1.86231317",
"ECCENTRICITY": "0.00090300",
"INCLINATION": "56.2238",
"RA_OF_ASC_NODE": "77.7557",
"ARG_OF_PERICENTER": "303.3350",
"MEAN_ANOMALY": "56.5956",
"EPHEMERIS_TYPE": "0",
"CLASSIFICATION_TYPE": "U",
"NORAD_CAT_ID": "43622",
"ELEMENT_SET_NO": "999",
"REV_AT_EPOCH": "4416",
"BSTAR": "0.00000000000000",
"MEAN_MOTION_DOT": "-0.00000006",
"MEAN_MOTION_DDOT": "0.0000000000000",
"SEMIMAJOR_AXIS": "27906.157",
"PERIOD": "773.232",
"APOAPSIS": "21553.221",
"PERIAPSIS": "21502.823",
"OBJECT_TYPE": "PAYLOAD",
"RCS_SIZE": "LARGE",
"COUNTRY_CODE": "PRC",
"LAUNCH_DATE": "2018-09-19",
"SITE": "XSC",
"DECAY_DATE": null,
"FILE": "4673118",
"GP_ID": "283418342",
"TLE_LINE0": "0 BEIDOU 3M13",
"TLE_LINE1": "1 43622U 18072A   25077.12440489 -.00000006  00000-0  00000-0 0  9995",
"TLE_LINE2": "2 43622  56.2238  77.7557 0009030 303.3350  56.5956  1.86231317 44165"
},
{
"CCSDS_OMM_VERS": "2.0",
"COMMENT": "GENERATED VIA SPACE-TRACK.ORG API",
"CREATION_DATE": "2025-03-19T17:43:14",
"ORIGINATOR": "18 SPCS",
"OBJECT_NAME": "BEIDOU 3 IGSO-3",
"OBJECT_ID": "2019-073A",
"CENTER_NAME": "EARTH",
"REF_FRAME": "TEME",
"TIME_SYSTEM": "UTC",
"MEAN_ELEMENT_THEORY": "SGP4",
"EPOCH": "2025-03-17T23:19:12.866016",
"MEAN_MOTION": "1.00273277",
"ECCENTRICITY": "0.00421490",
"INCLINATION": "55.5809",
"RA_OF_ASC_NODE": "285.8082",
"ARG_OF_PERICENTER": "181.6296",
"MEAN_ANOMALY": "178.3696",
"EPHEMERIS_TYPE": "0",
"CLASSIFICATION_TYPE": "U",
"NORAD_CAT_ID": "44709",
"ELEMENT_SET_NO": "999",
"REV_AT_EPOCH": "1988",
"BSTAR": "0.00000000000000",
"MEAN_MOTION_DOT": "-0.00000157",
"MEAN_MOTION_DDOT": "0.0000000000000",
"SEMIMAJOR_AXIS": "42164.314",
"PERIOD": "1436.076",
"APOAPSIS": "35963.897",
"PERIAPSIS": "35608.460",
"OBJECT_TYPE": "PAYLOAD",
"RCS_SIZE": "LARGE",
"COUNTRY_CODE": "PRC",
"LAUNCH_DATE": "2019-11-04",
"SITE": "XSC",
"DECAY_DATE": null,
"FILE": "4674121",
"GP_ID": "283500930",
"TLE_LINE0": "0 BEIDOU 3 IGSO-3",
"TLE_LINE1": "1 44709U 19073A   25076.97167669 -.00000157  00000-0  00000-0 0  9999",
"TLE_LINE2": "2 44709  55.5809 285.8082 0042149 181.6296 178.3696  1.00273277 19889"
},
{
"CCSDS_OMM_VERS": "2.0",
"COMMENT": "GENERATED VIA SPACE-TRACK.ORG API",
"CREATION_DATE": "2025-03-18T19:01:07",
"ORIGINATOR": "18 SPCS",
"OBJECT_NAME": "BEIDOU 15",
"OBJECT_ID": "2012-050B",
"CENTER_NAME": "EARTH",
"REF_FRAME": "TEME",
"TIME_SYSTEM": "UTC",
"MEAN_ELEMENT_THEORY": "SGP4",
"EPOCH": "2025-03-17T22:56:27.142080",
"MEAN_MOTION": "1.86231124",
"ECCENTRICITY": "0.00143280",
"INCLINATION": "56.1433",
"RA_OF_ASC_NODE": "78.0263",
"ARG_OF_PERICENTER": "335.8969",
"MEAN_ANOMALY": "24.0538",
"EPHEMERIS_TYPE": "0",
"CLASSIFICATION_TYPE": "U",
"NORAD_CAT_ID": "38775",
"ELEMENT_SET_NO": "999",
"REV_AT_EPOCH": "8481",
"BSTAR": "0.00000000000000",
"MEAN_MOTION_DOT": "-0.00000006",
"MEAN_MOTION_DDOT": "0.0000000000000",
"SEMIMAJOR_AXIS": "27906.176",
"PERIOD": "773.233",
"APOAPSIS": "21568.025",
"PERIAPSIS": "21488.057",
"OBJECT_TYPE": "PAYLOAD",
"RCS_SIZE": "LARGE",
"COUNTRY_CODE": "PRC",
"LAUNCH_DATE": "2012-09-18",
"SITE": "XSC",
"DECAY_DATE": null,
"FILE": "4673118",
"GP_ID": "283415346",
"TLE_LINE0": "0 BEIDOU 15",
"TLE_LINE1": "1 38775U 12050B   25076.95586970 -.00000006  00000-0  00000-0 0  9994",
"TLE_LINE2": "2 38775  56.1433  78.0263 0014328 335.8969  24.0538  1.86231124 84812"
},
{
"CCSDS_OMM_VERS": "2.0",
"COMMENT": "GENERATED VIA SPACE-TRACK.ORG API",
"CREATION_DATE": "2025-03-18T02:25:22",
"ORIGINATOR": "18 SPCS",
"OBJECT_NAME": "BEIDOU 3M19",
"OBJECT_ID": "2019-090A",
"CENTER_NAME": "EARTH",
"REF_FRAME": "TEME",
"TIME_SYSTEM": "UTC",
"MEAN_ELEMENT_THEORY": "SGP4",
"EPOCH": "2025-03-17T17:52:48.834624",
"MEAN_MOTION": "1.86231786",
"ECCENTRICITY": "0.00202100",
"INCLINATION": "56.1576",
"RA_OF_ASC_NODE": "77.9246",
"ARG_OF_PERICENTER": "286.6263",
"MEAN_ANOMALY": "225.9545",
"EPHEMERIS_TYPE": "0",
"CLASSIFICATION_TYPE": "U",
"NORAD_CAT_ID": "44864",
"ELEMENT_SET_NO": "999",
"REV_AT_EPOCH": "3573",
"BSTAR": "0.00000000000000",
"MEAN_MOTION_DOT": "-0.00000007",
"MEAN_MOTION_DDOT": "0.0000000000000",
"SEMIMAJOR_AXIS": "27906.110",
"PERIOD": "773.230",
"APOAPSIS": "21584.373",
"PERIAPSIS": "21471.577",
"OBJECT_TYPE": "PAYLOAD",
"RCS_SIZE": "LARGE",
"COUNTRY_CODE": "PRC",
"LAUNCH_DATE": "2019-12-16",
"SITE": "XSC",
"DECAY_DATE": null,
"FILE": "4672421",
"GP_ID": "283372267",
"TLE_LINE0": "0 BEIDOU 3M19",
"TLE_LINE1": "1 44864U 19090A   25076.74500966 -.00000007  00000-0  00000-0 0  9990",
"TLE_LINE2": "2 44864  56.1576  77.9246 0020210 286.6263 225.9545  1.86231786 35733"
},
{
"CCSDS_OMM_VERS": "2.0",
"COMMENT": "GENERATED VIA SPACE-TRACK.ORG API",
"CREATION_DATE": "2025-03-18T19:01:07",
"ORIGINATOR": "18 SPCS",
"OBJECT_NAME": "BEIDOU 3M1",
"OBJECT_ID": "2017-069A",
"CENTER_NAME": "EARTH",
"REF_FRAME": "TEME",
"TIME_SYSTEM": "UTC",
"MEAN_ELEMENT_THEORY": "SGP4",
"EPOCH": "2025-03-17T17:19:08.207328",
"MEAN_MOTION": "1.86231493",
"ECCENTRICITY": "0.00125210",
"INCLINATION": "56.2923",
"RA_OF_ASC_NODE": "78.1661",
"ARG_OF_PERICENTER": "304.7994",
"MEAN_ANOMALY": "55.1012",
"EPHEMERIS_TYPE": "0",
"CLASSIFICATION_TYPE": "U",
"NORAD_CAT_ID": "43001",
"ELEMENT_SET_NO": "999",
"REV_AT_EPOCH": "5010",
"BSTAR": "0.00000000000000",
"MEAN_MOTION_DOT": "-0.00000006",
"MEAN_MOTION_DDOT": "0.0000000000000",
"SEMIMAJOR_AXIS": "27906.139",
"PERIOD": "773.231",
"APOAPSIS": "21562.946",
"PERIAPSIS": "21493.063",
"OBJECT_TYPE": "PAYLOAD",
"RCS_SIZE": "LARGE",
"COUNTRY_CODE": "PRC",
"LAUNCH_DATE": "2017-11-05",
"SITE": "XSC",
"DECAY_DATE": null,
"FILE": "4673118",
"GP_ID": "283418167",
"TLE_LINE0": "0 BEIDOU 3M1",
"TLE_LINE1": "1 43001U 17069A   25076.72162277 -.00000006  00000-0  00000-0 0  9992",
"TLE_LINE2": "2 43001  56.2923  78.1661 0012521 304.7994  55.1012  1.86231493 50100"
},
{
"CCSDS_OMM_VERS": "2.0",
"COMMENT": "GENERATED VIA SPACE-TRACK.ORG API",
"CREATION_DATE": "2025-03-18T02:25:22",
"ORIGINATOR": "18 SPCS",
"OBJECT_NAME": "BEIDOU 3 IGSO-2",
"OBJECT_ID": "2019-035A",
"CENTER_NAME": "EARTH",
"REF_FRAME": "TEME",
"TIME_SYSTEM": "UTC",
"MEAN_ELEMENT_THEORY": "SGP4",
"EPOCH": "2025-03-17T15:15:54.245664",
"MEAN_MOTION": "1.00254723",
"ECCENTRICITY": "0.00365330",
"INCLINATION": "55.1992",
"RA_OF_ASC_NODE": "162.8713",
"ARG_OF_PERICENTER": "202.1317",
"MEAN_ANOMALY": "155.4770",
"EPHEMERIS_TYPE": "0",
"CLASSIFICATION_TYPE": "U",
"NORAD_CAT_ID": "44337",
"ELEMENT_SET_NO": "999",
"REV_AT_EPOCH": "2108",
"BSTAR": "0.00000000000000",
"MEAN_MOTION_DOT": "-0.00000120",
"MEAN_MOTION_DDOT": "0.0000000000000",
"SEMIMAJOR_AXIS": "42169.516",
"PERIOD": "1436.341",
"APOAPSIS": "35945.439",
"PERIAPSIS": "35637.323",
"OBJECT_TYPE": "PAYLOAD",
"RCS_SIZE": "LARGE",
"COUNTRY_CODE": "PRC",
"LAUNCH_DATE": "2019-06-24",
"SITE": "XSC",
"DECAY_DATE": null,
"FILE": "4672421",
"GP_ID": "283372131",
"TLE_LINE0": "0 BEIDOU 3 IGSO-2",
"TLE_LINE1": "1 44337U 19035A   25076.63604451 -.00000120  00000-0  00000-0 0  9992",
"TLE_LINE2": "2 44337  55.1992 162.8713 0036533 202.1317 155.4770  1.00254723 21082"
},
{
"CCSDS_OMM_VERS": "2.0",
"COMMENT": "GENERATED VIA SPACE-TRACK.ORG API",
"CREATION_DATE": "2025-03-17T19:07:54",
"ORIGINATOR": "18 SPCS",
"OBJECT_NAME": "BEIDOU 3M20",
"OBJECT_ID": "2019-090B",
"CENTER_NAME": "EARTH",
"REF_FRAME": "TEME",
"TIME_SYSTEM": "UTC",
"MEAN_ELEMENT_THEORY": "SGP4",
"EPOCH": "2025-03-17T11:08:18.685824",
"MEAN_MOTION": "1.86231723",
"ECCENTRICITY": "0.00178310",
"INCLINATION": "56.1591",
"RA_OF_ASC_NODE": "77.9676",
"ARG_OF_PERICENTER": "298.1542",
"MEAN_ANOMALY": "115.7737",
"EPHEMERIS_TYPE": "0",
"CLASSIFICATION_TYPE": "U",
"NORAD_CAT_ID": "44865",
"ELEMENT_SET_NO": "999",
"REV_AT_EPOCH": "3571",
"BSTAR": "0.00000000000000",
"MEAN_MOTION_DOT": "-0.00000008",
"MEAN_MOTION_DDOT": "0.0000000000000",
"SEMIMAJOR_AXIS": "27906.116",
"PERIOD": "773.230",
"APOAPSIS": "21577.741",
"PERIAPSIS": "21478.222",
"OBJECT_TYPE": "PAYLOAD",
"RCS_SIZE": "LARGE",
"COUNTRY_CODE": "PRC",
"LAUNCH_DATE": "2019-12-16",
"SITE": "XSC",
"DECAY_DATE": null,
"FILE": "4672105",
"GP_ID": "283335662",
"TLE_LINE0": "0 BEIDOU 3M20",
"TLE_LINE1": "1 44865U 19090B   25076.46410516 -.00000008  00000-0  00000-0 0  9992",
"TLE_LINE2": "2 44865  56.1591  77.9676 0017831 298.1542 115.7737  1.86231723 35719"
},
{
"CCSDS_OMM_VERS": "2.0",
"COMMENT": "GENERATED VIA SPACE-TRACK.ORG API",
"CREATION_DATE": "2025-03-17T19:07:54",
"ORIGINATOR": "18 SPCS",
"OBJECT_NAME": "BEIDOU 12",
"OBJECT_ID": "2012-018A",
"CENTER_NAME": "EARTH",
"REF_FRAME": "TEME",
"TIME_SYSTEM": "UTC",
"MEAN_ELEMENT_THEORY": "SGP4",
"EPOCH": "2025-03-17T05:46:37.191936",
"MEAN_MOTION": "1.86233820",
"ECCENTRICITY": "0.00215910",
"INCLINATION": "56.1374",
"RA_OF_ASC_NODE": "320.2292",
"ARG_OF_PERICENTER": "273.5601",
"MEAN_ANOMALY": "86.2478",
"EPHEMERIS_TYPE": "0",
"CLASSIFICATION_TYPE": "U",
"NORAD_CAT_ID": "38250",
"ELEMENT_SET_NO": "999",
"REV_AT_EPOCH": "8743",
"BSTAR": "0.00000000000000",
"MEAN_MOTION_DOT": "-0.00000073",
"MEAN_MOTION_DDOT": "0.0000000000000",
"SEMIMAJOR_AXIS": "27905.907",
"PERIOD": "773.222",
"APOAPSIS": "21588.023",
"PERIAPSIS": "21467.520",
"OBJECT_TYPE": "PAYLOAD",
"RCS_SIZE": "LARGE",
"COUNTRY_CODE": "PRC",
"LAUNCH_DATE": "2012-04-29",
"SITE": "XSC",
"DECAY_DATE": null,
"FILE": "4672105",
"GP_ID": "283332166",
"TLE_LINE0": "0 BEIDOU 12",
"TLE_LINE1": "1 38250U 12018A   25076.24070824 -.00000073  00000-0  00000-0 0  9998",
"TLE_LINE2": "2 38250  56.1374 320.2292 0021591 273.5601  86.2478  1.86233820 87438"
}
]
